[{"OBJECT_NAME":"JILIN-1 07","OBJECT_ID":"2018-008E","EPOCH":"2026-03-09T22:24:26.445888","MEAN_MOTION":15.32987507,"ECCENTRICITY":0.00101791,"INCLINATION":97.1876,"RA_OF_ASC_NODE":91.5817,"ARG_OF_PERICENTER":62.7832,"MEAN_ANOMALY":297.4447,"EPHEMERIS_TYPE":0,"CLASSIFICATION_TYPE":"U","NORAD_CAT_ID":43159,"ELEMENT_SET_NO":999,"REV_AT_EPOCH":44978,"BSTAR":0.00036439521,"MEAN_MOTION_DOT":0.00011559,"MEAN_MOTION_DDOT":0},{"OBJECT_NAME":"STARLINK-30927","OBJECT_ID":"2023-178J","EPOCH":"2026-03-09T01:49:18.808032","MEAN_MOTION":15.30189297,"ECCENTRICITY":0.00011698,"INCLINATION":53.1617,"RA_OF_ASC_NODE":4.1926,"ARG_OF_PERICENTER":85.5281,"MEAN_ANOMALY":274.5853,"EPHEMERIS_TYPE":0,"CLASSIFICATION_TYPE":"U","NORAD_CAT_ID":58382,"ELEMENT_SET_NO":999,"REV_AT_EPOCH":12977,"BSTAR":-1.3388147e-5,"MEAN_MOTION_DOT":-7.55e-6,"MEAN_MOTION_DDOT":0}]
